{
  "type": "FeatureCollection",
  "name": "fleet-dashboard-routes",
  "features": [
    {
      "type": "Feature",
      "properties": {
        "id": "swiftwater",
        "name": "Swiftwater loop"
      },
      "geometry": {
        "type": "LineString",
        "coordinates": [
          [
            -75.343035,
            41.089769
          ],
          [
            -75.343608,
            41.089607
          ],
          [
            -75.343928,
            41.089598
          ],
          [
            -75.344452,
            41.089761
          ],
          [
            -75.344843,
            41.090019
          ],
          [
            -75.345043,
            41.09015
          ],
          [
            -75.345238,
            41.090279
          ],
          [
            -75.34539,
            41.090376
          ],
          [
            -75.346646,
            41.091181
          ],
          [
            -75.346806,
            41.091243
          ],
          [
            -75.347135,
            41.091341
          ],
          [
            -75.347454,
            41.091469
          ],
          [
            -75.347849,
            41.091739
          ],
          [
            -75.347835,
            41.09207
          ],
          [
            -75.347518,
            41.092488
          ],
          [
            -75.347135,
            41.092885
          ],
          [
            -75.3468,
            41.093251
          ],
          [
            -75.346617,
            41.09336
          ],
          [
            -75.346127,
            41.093608
          ],
          [
            -75.34318,
            41.094304
          ],
          [
            -75.342302,
            41.094512
          ],
          [
            -75.341922,
            41.094705
          ],
          [
            -75.341807,
            41.094816
          ],
          [
            -75.34167,
            41.094948
          ],
          [
            -75.341361,
            41.09528
          ],
          [
            -75.341255,
            41.09533
          ],
          [
            -75.340923,
            41.095488
          ],
          [
            -75.340534,
            41.095704
          ],
          [
            -75.340347,
            41.095813
          ],
          [
            -75.339483,
            41.096092
          ],
          [
            -75.338776,
            41.096306
          ],
          [
            -75.3377,
            41.09659
          ],
          [
            -75.337339,
            41.096809
          ],
          [
            -75.336985,
            41.097108
          ],
          [
            -75.336614,
            41.097526
          ],
          [
            -75.336587,
            41.097681
          ],
          [
            -75.336669,
            41.098815
          ],
          [
            -75.33601,
            41.098651
          ],
          [
            -75.334302,
            41.098211
          ],
          [
            -75.333874,
            41.098049
          ],
          [
            -75.333617,
            41.097927
          ],
          [
            -75.333228,
            41.097703
          ],
          [
            -75.332729,
            41.097355
          ],
          [
            -75.331999,
            41.096866
          ],
          [
            -75.331668,
            41.096664
          ],
          [
            -75.331338,
            41.096492
          ],
          [
            -75.331275,
            41.096481
          ],
          [
            -75.331233,
            41.096484
          ],
          [
            -75.331191,
            41.096496
          ],
          [
            -75.331125,
            41.096555
          ],
          [
            -75.331014,
            41.096632
          ],
          [
            -75.332013,
            41.097479
          ],
          [
            -75.332272,
            41.09773
          ],
          [
            -75.332538,
            41.098031
          ],
          [
            -75.332923,
            41.098566
          ],
          [
            -75.332945,
            41.098596
          ],
          [
            -75.333339,
            41.099214
          ],
          [
            -75.333373,
            41.099259
          ],
          [
            -75.333808,
            41.099943
          ],
          [
            -75.334136,
            41.100453
          ],
          [
            -75.334149,
            41.100473
          ],
          [
            -75.335088,
            41.101901
          ],
          [
            -75.335304,
            41.10223
          ],
          [
            -75.335345,
            41.102293
          ],
          [
            -75.33549,
            41.102516
          ],
          [
            -75.335712,
            41.102828
          ],
          [
            -75.336647,
            41.104112
          ],
          [
            -75.337411,
            41.105237
          ],
          [
            -75.337726,
            41.105723
          ],
          [
            -75.338059,
            41.10621
          ],
          [
            -75.338578,
            41.106906
          ],
          [
            -75.338714,
            41.10711
          ],
          [
            -75.33966,
            41.10822
          ],
          [
            -75.340213,
            41.108836
          ],
          [
            -75.340827,
            41.109453
          ],
          [
            -75.341103,
            41.109699
          ],
          [
            -75.341409,
            41.109971
          ],
          [
            -75.342449,
            41.110852
          ],
          [
            -75.343059,
            41.111287
          ],
          [
            -75.344629,
            41.112405
          ],
          [
            -75.345175,
            41.112739
          ],
          [
            -75.345391,
            41.112881
          ],
          [
            -75.345807,
            41.113129
          ],
          [
            -75.348018,
            41.114382
          ],
          [
            -75.348504,
            41.114657
          ],
          [
            -75.348693,
            41.114766
          ],
          [
            -75.350855,
            41.115999
          ],
          [
            -75.351656,
            41.116455
          ],
          [
            -75.352372,
            41.116864
          ],
          [
            -75.352903,
            41.117125
          ],
          [
            -75.353208,
            41.117309
          ],
          [
            -75.35384,
            41.117775
          ],
          [
            -75.354198,
            41.118102
          ],
          [
            -75.354588,
            41.118531
          ],
          [
            -75.354924,
            41.118973
          ],
          [
            -75.355128,
            41.11927
          ],
          [
            -75.355212,
            41.119446
          ],
          [
            -75.355445,
            41.119938
          ],
          [
            -75.35548,
            41.120011
          ],
          [
            -75.355517,
            41.120079
          ],
          [
            -75.355835,
            41.120675
          ],
          [
            -75.355983,
            41.120906
          ],
          [
            -75.356012,
            41.120953
          ],
          [
            -75.356249,
            41.121285
          ],
          [
            -75.356256,
            41.121294
          ],
          [
            -75.356276,
            41.12132
          ],
          [
            -75.356686,
            41.12178
          ],
          [
            -75.356837,
            41.12195
          ],
          [
            -75.357048,
            41.122186
          ],
          [
            -75.357082,
            41.122224
          ],
          [
            -75.357535,
            41.122052
          ]
        ]
      }
    },
    {
      "type": "Feature",
      "properties": {
        "id": "pocono",
        "name": "Mount Pocono run"
      },
      "geometry": {
        "type": "LineString",
        "coordinates": [
          [
            -75.357535,
            41.122052
          ],
          [
            -75.357082,
            41.122224
          ],
          [
            -75.357652,
            41.123015
          ],
          [
            -75.357686,
            41.123069
          ],
          [
            -75.357904,
            41.123421
          ],
          [
            -75.35833,
            41.124152
          ],
          [
            -75.35836,
            41.124203
          ],
          [
            -75.358465,
            41.124397
          ],
          [
            -75.358506,
            41.124464
          ],
          [
            -75.358659,
            41.124687
          ],
          [
            -75.358723,
            41.124791
          ],
          [
            -75.358907,
            41.125089
          ],
          [
            -75.35912,
            41.125381
          ],
          [
            -75.359138,
            41.125409
          ],
          [
            -75.359206,
            41.125507
          ],
          [
            -75.359257,
            41.12558
          ],
          [
            -75.359512,
            41.125956
          ],
          [
            -75.359704,
            41.126219
          ],
          [
            -75.359845,
            41.126391
          ],
          [
            -75.359995,
            41.126375
          ],
          [
            -75.360147,
            41.126359
          ],
          [
            -75.361069,
            41.126219
          ],
          [
            -75.362422,
            41.126024
          ],
          [
            -75.36277,
            41.125972
          ],
          [
            -75.363228,
            41.125904
          ],
          [
            -75.364929,
            41.125621
          ],
          [
            -75.365336,
            41.125546
          ],
          [
            -75.365829,
            41.125436
          ],
          [
            -75.366686,
            41.125246
          ],
          [
            -75.367724,
            41.124988
          ],
          [
            -75.367921,
            41.124939
          ],
          [
            -75.368047,
            41.124897
          ],
          [
            -75.369917,
            41.124273
          ],
          [
            -75.37021,
            41.124176
          ],
          [
            -75.371206,
            41.123821
          ],
          [
            -75.371267,
            41.123799
          ],
          [
            -75.371339,
            41.123774
          ],
          [
            -75.371421,
            41.123741
          ],
          [
            -75.371525,
            41.123696
          ],
          [
            -75.372023,
            41.123506
          ],
          [
            -75.372438,
            41.123318
          ],
          [
            -75.37284,
            41.123102
          ],
          [
            -75.373308,
            41.122855
          ],
          [
            -75.373362,
            41.122827
          ],
          [
            -75.373543,
            41.122731
          ],
          [
            -75.373702,
            41.122648
          ],
          [
            -75.374001,
            41.122492
          ],
          [
            -75.374952,
            41.121949
          ],
          [
            -75.375569,
            41.121582
          ],
          [
            -75.375994,
            41.121345
          ],
          [
            -75.376079,
            41.121297
          ],
          [
            -75.376198,
            41.121233
          ],
          [
            -75.376268,
            41.121194
          ],
          [
            -75.376332,
            41.121156
          ],
          [
            -75.376354,
            41.121142
          ],
          [
            -75.376533,
            41.12103
          ],
          [
            -75.377542,
            41.120399
          ],
          [
            -75.378268,
            41.119987
          ],
          [
            -75.378474,
            41.119862
          ],
          [
            -75.378875,
            41.119628
          ],
          [
            -75.379468,
            41.119236
          ],
          [
            -75.379631,
            41.119139
          ],
          [
            -75.379732,
            41.119074
          ],
          [
            -75.380082,
            41.118848
          ],
          [
            -75.380639,
            41.118429
          ],
          [
            -75.380841,
            41.118277
          ],
          [
            -75.381391,
            41.11757
          ],
          [
            -75.381612,
            41.117204
          ],
          [
            -75.381831,
            41.116682
          ],
          [
            -75.382012,
            41.116164
          ],
          [
            -75.38229,
            41.115367
          ],
          [
            -75.382508,
            41.114742
          ],
          [
            -75.382633,
            41.114384
          ],
          [
            -75.382849,
            41.113879
          ],
          [
            -75.383022,
            41.113547
          ],
          [
            -75.383113,
            41.1134
          ],
          [
            -75.383177,
            41.113297
          ],
          [
            -75.383483,
            41.112918
          ],
          [
            -75.383701,
            41.112699
          ],
          [
            -75.383784,
            41.112624
          ],
          [
            -75.38382,
            41.112593
          ],
          [
            -75.383914,
            41.112513
          ],
          [
            -75.384011,
            41.112432
          ],
          [
            -75.384227,
            41.112271
          ],
          [
            -75.384689,
            41.11196
          ],
          [
            -75.385684,
            41.11134
          ],
          [
            -75.386557,
            41.110801
          ],
          [
            -75.387229,
            41.110362
          ],
          [
            -75.389781,
            41.108795
          ],
          [
            -75.392159,
            41.107328
          ],
          [
            -75.392478,
            41.107133
          ],
          [
            -75.392744,
            41.106987
          ],
          [
            -75.393023,
            41.106845
          ],
          [
            -75.393447,
            41.106662
          ],
          [
            -75.393852,
            41.10651
          ],
          [
            -75.394364,
            41.10636
          ],
          [
            -75.394746,
            41.106259
          ],
          [
            -75.395262,
            41.106161
          ],
          [
            -75.39559,
            41.106119
          ],
          [
            -75.39588,
            41.106104
          ],
          [
            -75.396574,
            41.106055
          ],
          [
            -75.396753,
            41.106055
          ],
          [
            -75.396811,
            41.106056
          ],
          [
            -75.397132,
            41.106068
          ],
          [
            -75.397298,
            41.106077
          ],
          [
            -75.397615,
            41.106108
          ],
          [
            -75.397969,
            41.106153
          ],
          [
            -75.398277,
            41.106202
          ],
          [
            -75.398701,
            41.106292
          ],
          [
            -75.399086,
            41.106394
          ],
          [
            -75.399556,
            41.106542
          ],
          [
            -75.399962,
            41.106698
          ],
          [
            -75.400453,
            41.106901
          ],
          [
            -75.400688,
            41.106963
          ],
          [
            -75.401163,
            41.10717
          ],
          [
            -75.401183,
            41.107178
          ],
          [
            -75.401273,
            41.107217
          ],
          [
            -75.401488,
            41.107311
          ],
          [
            -75.401911,
            41.107498
          ],
          [
            -75.402115,
            41.107589
          ],
          [
            -75.403211,
            41.108059
          ],
          [
            -75.403593,
            41.107539
          ],
          [
            -75.403744,
            41.107379
          ],
          [
            -75.403814,
            41.107328
          ],
          [
            -75.403922,
            41.10725
          ],
          [
            -75.404294,
            41.107034
          ],
          [
            -75.406132,
            41.105924
          ],
          [
            -75.406277,
            41.105837
          ],
          [
            -75.406958,
            41.106483
          ],
          [
            -75.406999,
            41.10649
          ],
          [
            -75.407004,
            41.106487
          ]
        ]
      }
    },
    {
      "type": "Feature",
      "properties": {
        "id": "tannersville",
        "name": "Tannersville line"
      },
      "geometry": {
        "type": "LineString",
        "coordinates": [
          [
            -75.305201,
            41.040039
          ],
          [
            -75.305181,
            41.040039
          ],
          [
            -75.305064,
            41.040015
          ],
          [
            -75.304968,
            41.039973
          ],
          [
            -75.304681,
            41.039837
          ],
          [
            -75.30438,
            41.039478
          ],
          [
            -75.304143,
            41.039159
          ],
          [
            -75.303634,
            41.038476
          ],
          [
            -75.303961,
            41.038696
          ],
          [
            -75.305471,
            41.039715
          ],
          [
            -75.305761,
            41.039893
          ],
          [
            -75.305933,
            41.039979
          ],
          [
            -75.305978,
            41.040057
          ],
          [
            -75.306094,
            41.040238
          ],
          [
            -75.306198,
            41.0404
          ],
          [
            -75.306413,
            41.040738
          ],
          [
            -75.306549,
            41.040953
          ],
          [
            -75.306786,
            41.04129
          ],
          [
            -75.306848,
            41.041378
          ],
          [
            -75.306871,
            41.04141
          ],
          [
            -75.306955,
            41.04153
          ],
          [
            -75.307043,
            41.041655
          ],
          [
            -75.30707,
            41.041699
          ],
          [
            -75.307238,
            41.041977
          ],
          [
            -75.307255,
            41.042005
          ],
          [
            -75.307611,
            41.04259
          ],
          [
            -75.307684,
            41.04271
          ],
          [
            -75.307905,
            41.043074
          ],
          [
            -75.30804,
            41.043297
          ],
          [
            -75.308179,
            41.043524
          ],
          [
            -75.30824,
            41.043625
          ],
          [
            -75.308477,
            41.044014
          ],
          [
            -75.308792,
            41.044508
          ],
          [
            -75.309067,
            41.044941
          ],
          [
            -75.309338,
            41.045364
          ],
          [
            -75.309377,
            41.045425
          ],
          [
            -75.3094,
            41.045466
          ],
          [
            -75.309557,
            41.045738
          ],
          [
            -75.309588,
            41.045792
          ],
          [
            -75.309679,
            41.045952
          ],
          [
            -75.310632,
            41.047615
          ],
          [
            -75.310957,
            41.048182
          ],
          [
            -75.311198,
            41.048544
          ],
          [
            -75.311218,
            41.048574
          ],
          [
            -75.313199,
            41.051192
          ],
          [
            -75.314219,
            41.052518
          ],
          [
            -75.31504,
            41.053655
          ],
          [
            -75.315704,
            41.054984
          ],
          [
            -75.315797,
            41.055234
          ],
          [
            -75.316034,
            41.055875
          ],
          [
            -75.316113,
            41.056087
          ],
          [
            -75.316254,
            41.056467
          ],
          [
            -75.316603,
            41.057713
          ],
          [
            -75.316732,
            41.058418
          ],
          [
            -75.316782,
            41.058695
          ],
          [
            -75.31684,
            41.059549
          ],
          [
            -75.316846,
            41.059645
          ],
          [
            -75.316911,
            41.060619
          ],
          [
            -75.317001,
            41.06183
          ],
          [
            -75.317039,
            41.06207
          ],
          [
            -75.317064,
            41.062365
          ],
          [
            -75.317088,
            41.062642
          ],
          [
            -75.317106,
            41.062826
          ],
          [
            -75.317098,
            41.063095
          ],
          [
            -75.317179,
            41.063858
          ],
          [
            -75.317534,
            41.064754
          ],
          [
            -75.317907,
            41.065334
          ],
          [
            -75.318455,
            41.066054
          ],
          [
            -75.319201,
            41.06666
          ]
        ]
      }
    },
    {
      "type": "Feature",
      "properties": {
        "id": "manor",
        "name": "Pocono Manor link"
      },
      "geometry": {
        "type": "LineString",
        "coordinates": [
          [
            -75.384713,
            41.100342
          ],
          [
            -75.384713,
            41.100342
          ],
          [
            -75.384308,
            41.101046
          ],
          [
            -75.384304,
            41.101069
          ],
          [
            -75.384311,
            41.101094
          ],
          [
            -75.384336,
            41.101113
          ],
          [
            -75.384474,
            41.101164
          ],
          [
            -75.384451,
            41.101209
          ],
          [
            -75.384432,
            41.10127
          ],
          [
            -75.384432,
            41.101306
          ],
          [
            -75.384451,
            41.10134
          ],
          [
            -75.384491,
            41.101369
          ],
          [
            -75.384568,
            41.101397
          ],
          [
            -75.384658,
            41.101431
          ],
          [
            -75.384402,
            41.10187
          ],
          [
            -75.384245,
            41.102161
          ],
          [
            -75.383441,
            41.103805
          ],
          [
            -75.383024,
            41.10462
          ],
          [
            -75.382951,
            41.104739
          ],
          [
            -75.382601,
            41.105184
          ],
          [
            -75.382365,
            41.10529
          ],
          [
            -75.382214,
            41.105322
          ],
          [
            -75.382057,
            41.105326
          ],
          [
            -75.381782,
            41.1053
          ],
          [
            -75.381702,
            41.105272
          ],
          [
            -75.381401,
            41.105181
          ],
          [
            -75.381143,
            41.10512
          ],
          [
            -75.38087,
            41.105076
          ],
          [
            -75.380158,
            41.104975
          ],
          [
            -75.378555,
            41.104746
          ],
          [
            -75.377543,
            41.104594
          ],
          [
            -75.376596,
            41.104465
          ],
          [
            -75.374615,
            41.10418
          ],
          [
            -75.374014,
            41.104091
          ],
          [
            -75.373601,
            41.104015
          ],
          [
            -75.37309,
            41.103902
          ],
          [
            -75.372804,
            41.103834
          ],
          [
            -75.372471,
            41.103741
          ],
          [
            -75.371915,
            41.103579
          ],
          [
            -75.367529,
            41.102288
          ],
          [
            -75.366895,
            41.102104
          ],
          [
            -75.366435,
            41.101982
          ],
          [
            -75.365903,
            41.101864
          ],
          [
            -75.365351,
            41.101769
          ],
          [
            -75.364947,
            41.101726
          ],
          [
            -75.364495,
            41.101694
          ],
          [
            -75.364097,
            41.101687
          ],
          [
            -75.363675,
            41.101693
          ],
          [
            -75.363136,
            41.101728
          ],
          [
            -75.362649,
            41.101783
          ],
          [
            -75.362261,
            41.101841
          ],
          [
            -75.361938,
            41.101908
          ],
          [
            -75.359399,
            41.102498
          ],
          [
            -75.359336,
            41.102513
          ],
          [
            -75.358954,
            41.10261
          ],
          [
            -75.358323,
            41.102768
          ],
          [
            -75.35791,
            41.102866
          ],
          [
            -75.357203,
            41.103034
          ],
          [
            -75.356284,
            41.103251
          ],
          [
            -75.355844,
            41.103349
          ],
          [
            -75.35549,
            41.103407
          ],
          [
            -75.355144,
            41.103444
          ],
          [
            -75.354872,
            41.103452
          ],
          [
            -75.354519,
            41.103429
          ],
          [
            -75.354154,
            41.103376
          ],
          [
            -75.353822,
            41.103299
          ],
          [
            -75.353514,
            41.10321
          ],
          [
            -75.353189,
            41.103082
          ],
          [
            -75.35284,
            41.102909
          ],
          [
            -75.352535,
            41.102728
          ],
          [
            -75.351757,
            41.102293
          ],
          [
            -75.351062,
            41.101917
          ],
          [
            -75.350786,
            41.10178
          ],
          [
            -75.35034,
            41.101586
          ],
          [
            -75.349914,
            41.101446
          ],
          [
            -75.34938,
            41.101317
          ],
          [
            -75.347497,
            41.100954
          ],
          [
            -75.346833,
            41.100825
          ],
          [
            -75.346519,
            41.100761
          ],
          [
            -75.346062,
            41.100672
          ],
          [
            -75.343452,
            41.100157
          ],
          [
            -75.341427,
            41.099753
          ],
          [
            -75.340714,
            41.099611
          ],
          [
            -75.33859,
            41.099195
          ],
          [
            -75.336669,
            41.098815
          ],
          [
            -75.336587,
            41.097681
          ],
          [
            -75.336614,
            41.097526
          ],
          [
            -75.336985,
            41.097108
          ],
          [
            -75.337339,
            41.096809
          ],
          [
            -75.3377,
            41.09659
          ],
          [
            -75.338776,
            41.096306
          ],
          [
            -75.339483,
            41.096092
          ],
          [
            -75.340347,
            41.095813
          ],
          [
            -75.340534,
            41.095704
          ],
          [
            -75.340923,
            41.095488
          ],
          [
            -75.341255,
            41.09533
          ],
          [
            -75.341361,
            41.09528
          ],
          [
            -75.34167,
            41.094948
          ],
          [
            -75.341807,
            41.094816
          ],
          [
            -75.341922,
            41.094705
          ],
          [
            -75.342302,
            41.094512
          ],
          [
            -75.34318,
            41.094304
          ],
          [
            -75.346127,
            41.093608
          ],
          [
            -75.346617,
            41.09336
          ],
          [
            -75.3468,
            41.093251
          ],
          [
            -75.347135,
            41.092885
          ],
          [
            -75.347518,
            41.092488
          ],
          [
            -75.347835,
            41.09207
          ],
          [
            -75.347849,
            41.091739
          ],
          [
            -75.347454,
            41.091469
          ],
          [
            -75.347135,
            41.091341
          ],
          [
            -75.346806,
            41.091243
          ],
          [
            -75.346646,
            41.091181
          ],
          [
            -75.34539,
            41.090376
          ],
          [
            -75.345238,
            41.090279
          ],
          [
            -75.345043,
            41.09015
          ],
          [
            -75.344843,
            41.090019
          ],
          [
            -75.344452,
            41.089761
          ],
          [
            -75.343928,
            41.089598
          ],
          [
            -75.343608,
            41.089607
          ],
          [
            -75.343035,
            41.089769
          ]
        ]
      }
    }
  ]
}
